0 BEIDOU G4
1 37210U 10057A   13282.63191764 -.00000126  00000-0  10000-3 0  7823
2 37210 000.7610 036.0824 0007002 157.9754 211.8369 01.00271355 10846
0 BEIDOU G4
1 37210U 10057A   13283.60611766  .00000000  00000-0  10000-3 0  7842
2 37210 000.7627 037.4003 0007161 159.2539 200.8955 01.00267137 10853
0 BEIDOU G4
1 37210U 10057A   13283.64343536 -.00000129  00000-0  10000-3 0  7835
2 37210 000.7626 036.1679 0006940 158.3238 216.5407 01.00271239 10851
0 BEIDOU G4
1 37210U 10057A   13285.61465959 -.00000135  00000-0  10000-3 0  7857
2 37210 000.7640 037.0961 0006861 154.9906 210.5099 01.00270404 10873
0 BEIDOU G4
1 37210U 10057A   13286.61939259 -.00000136  00000-0  10000-3 0  7869
2 37210 000.7660 037.1854 0006877 155.1151 212.9844 01.00270364 10889
0 BEIDOU G4
1 37210U 10057A   13287.63357794 -.00000137  00000-0  10000-3 0  7872
2 37210 000.7676 037.2427 0006901 155.2223 218.9201 01.00270318 10895
0 BEIDOU G4
1 37210U 10057A   13288.81350462 -.00000136  00000-0  10000-3 0  7888
2 37210 000.7690 037.2860 0007004 157.8985 282.1263 01.00270255 10903
0 BEIDOU G4
1 37210U 10057A   13289.71309449 -.00000135  00000-0  10000-3 0  7897
2 37210 000.7706 036.7189 0006954 158.6987 246.6326 01.00270550 10917
0 BEIDOU G4
1 37210U 10057A   13291.21155943 -.00000132  00000-0  10000-3 0  7902
2 37210 000.7723 036.7911 0006996 159.6803 066.4942 01.00270483 10921
0 BEIDOU G4
1 37210U 10057A   13292.64302575 -.00000129  00000-0  10000-3 0  7912
2 37210 000.7770 038.2322 0007259 156.9706 224.5189 01.00273672 10946
0 BEIDOU G4
1 37210U 10057A   13293.47992816 -.00000127  00000-0  10000-3 0  7926
2 37210 000.7783 038.2362 0007437 160.1334 163.4616 01.00273331 10955
0 BEIDOU G4
1 37210U 10057A   13294.61097054 -.00000125  00000-0  10000-3 0  7932
2 37210 000.7800 038.2944 0007415 160.3450 211.4896 01.00273514 10966
0 BEIDOU G4
1 37210U 10057A   13295.62085417 -.00000124  00000-0  10000-3 0  7944
2 37210 000.7813 038.3238 0007402 160.2610 216.1041 01.00273533 10976
